ALOS (DAICHI)           
1 28931U 06002A   26027.58675888  .00002579  00000+0  44167-3 0  9990
2 28931  98.1150 343.7717 0002189  78.0164 282.1287 14.69663329 67447
H-2A R/B                
1 28932U 06002B   26027.35623332  .00012390  00000+0  63294-3 0  9997
2 28932  98.2336 170.8740 0053701  22.9958 337.3659 15.15578538 88173
RESURS-DK 1             
1 29228U 06021A   26027.60125646  .00004529  00000+0  26566-3 0  9996
2 29228  69.9346 343.2865 0005126 214.5731 145.5102 15.12478088 81315
CZ-4B R/B               
1 29507U 06046C   26027.57249647  .00006991  00000+0  35750-3 0  9997
2 29507  97.5678  72.5883 0034874  51.9193 308.5177 15.16435092 53818
CZ-2C R/B               
1 31114U 07010B   26027.30106917  .00000221  00000+0  12011-3 0  9994
2 31114  98.3971 142.6595 0059887  55.2819 305.3980 14.20231279973848
COSMO-SKYMED 1          
1 31598U 07023A   26027.60636637  .00006536  00000+0  58491-3 0  9991
2 31598  97.8854 218.3208 0001500  87.9249 272.2144 14.96188926  8765
COSMOS 2428             
1 31792U 07029A   26027.11935958  .00000433  00000+0  25809-3 0  9994
2 31792  70.9402 290.6070 0006445 323.9826  36.0860 14.12922041958227
SL-16 R/B               
1 31793U 07029B   26027.62167005  .00000088  00000+0  70337-4 0  9994
2 31793  70.9732 258.7128 0001839 271.4848 117.7574 14.14822568959568
KORONAS-FOTON           
1 33504U 09003A   26027.77266891  .00014430  00000+0  33417-3 0  9992
2 33504  82.4324 318.3747 0009494 313.6260  46.4198 15.42263633939435
CZ-2C R/B               
1 37731U 11030B   26027.80063421  .00002196  00000+0  28283-3 0  9990
2 37731  97.8473 345.9084 0053954 122.5184 261.5051 14.81063541784049
H-2A R/B                
1 38341U 12025E   26027.83382641  .00005641  00000+0  51363-3 0  9997
2 38341  98.4652 351.6451 0046345  86.5986 274.0532 14.94797912742115
SHIJIAN-16 (SJ-16)      
1 39358U 13057A   26027.86712888  .00001540  00000+0  15361-3 0  9997
2 39358  74.9716 262.3645 0017430 213.0572 146.9528 14.92206431665416
