CCSDS_OMM_VERS = 2.0
CREATION_DATE  = 
ORIGINATOR     = 

OBJECT_NAME    = ALOS (DAICHI)
OBJECT_ID      = 2006-002A
CENTER_NAME    = EARTH
REF_FRAME      = TEME
TIME_SYSTEM    = UTC
MEAN_ELEMENT_THEORY = SGP/SGP4

EPOCH          = 2026-01-27T14:04:55.967232
MEAN_MOTION    = 14.69663329
ECCENTRICITY   = .00021894
INCLINATION    = 98.1150
RA_OF_ASC_NODE = 343.7717
ARG_OF_PERICENTER = 78.0164
MEAN_ANOMALY   = 282.1287

EPHEMERIS_TYPE = 0
CLASSIFICATION_TYPE = U
NORAD_CAT_ID   = 28931
ELEMENT_SET_NO = 999
REV_AT_EPOCH   = 6744
BSTAR          = .44167301E-3
MEAN_MOTION_DOT = .2579E-4
MEAN_MOTION_DDOT = 0

CCSDS_OMM_VERS = 2.0
CREATION_DATE  = 
ORIGINATOR     = 

OBJECT_NAME    = H-2A R/B
OBJECT_ID      = 2006-002B
CENTER_NAME    = EARTH
REF_FRAME      = TEME
TIME_SYSTEM    = UTC
MEAN_ELEMENT_THEORY = SGP/SGP4

EPOCH          = 2026-01-27T08:32:58.558848
MEAN_MOTION    = 15.15578538
ECCENTRICITY   = .00537018
INCLINATION    = 98.2336
RA_OF_ASC_NODE = 170.8740
ARG_OF_PERICENTER = 22.9958
MEAN_ANOMALY   = 337.3659

EPHEMERIS_TYPE = 0
CLASSIFICATION_TYPE = U
NORAD_CAT_ID   = 28932
ELEMENT_SET_NO = 999
REV_AT_EPOCH   = 8817
BSTAR          = .63294072E-3
MEAN_MOTION_DOT = .1239E-3
MEAN_MOTION_DDOT = 0

CCSDS_OMM_VERS = 2.0
CREATION_DATE  = 
ORIGINATOR     = 

OBJECT_NAME    = RESURS-DK 1
OBJECT_ID      = 2006-021A
CENTER_NAME    = EARTH
REF_FRAME      = TEME
TIME_SYSTEM    = UTC
MEAN_ELEMENT_THEORY = SGP/SGP4

EPOCH          = 2026-01-27T14:25:48.558144
MEAN_MOTION    = 15.12478088
ECCENTRICITY   = .00051262
INCLINATION    = 69.9346
RA_OF_ASC_NODE = 343.2865
ARG_OF_PERICENTER = 214.5731
MEAN_ANOMALY   = 145.5102

EPHEMERIS_TYPE = 0
CLASSIFICATION_TYPE = U
NORAD_CAT_ID   = 29228
ELEMENT_SET_NO = 999
REV_AT_EPOCH   = 8131
BSTAR          = .26565809E-3
MEAN_MOTION_DOT = .4529E-4
MEAN_MOTION_DDOT = 0

CCSDS_OMM_VERS = 2.0
CREATION_DATE  = 
ORIGINATOR     = 

OBJECT_NAME    = CZ-4B R/B
OBJECT_ID      = 2006-046C
CENTER_NAME    = EARTH
REF_FRAME      = TEME
TIME_SYSTEM    = UTC
MEAN_ELEMENT_THEORY = SGP/SGP4

EPOCH          = 2026-01-27T13:44:23.695008
MEAN_MOTION    = 15.16435092
ECCENTRICITY   = .00348745
INCLINATION    = 97.5678
RA_OF_ASC_NODE = 72.5883
ARG_OF_PERICENTER = 51.9193
MEAN_ANOMALY   = 308.5177

EPHEMERIS_TYPE = 0
CLASSIFICATION_TYPE = U
NORAD_CAT_ID   = 29507
ELEMENT_SET_NO = 999
REV_AT_EPOCH   = 5381
BSTAR          = .3574996E-3
MEAN_MOTION_DOT = .6991E-4
MEAN_MOTION_DDOT = 0

CCSDS_OMM_VERS = 2.0
CREATION_DATE  = 
ORIGINATOR     = 

OBJECT_NAME    = CZ-2C R/B
OBJECT_ID      = 2007-010B
CENTER_NAME    = EARTH
REF_FRAME      = TEME
TIME_SYSTEM    = UTC
MEAN_ELEMENT_THEORY = SGP/SGP4

EPOCH          = 2026-01-27T07:13:32.376288
MEAN_MOTION    = 14.20231279
ECCENTRICITY   = .0059887
INCLINATION    = 98.3971
RA_OF_ASC_NODE = 142.6595
ARG_OF_PERICENTER = 55.2819
MEAN_ANOMALY   = 305.3980

EPHEMERIS_TYPE = 0
CLASSIFICATION_TYPE = U
NORAD_CAT_ID   = 31114
ELEMENT_SET_NO = 999
REV_AT_EPOCH   = 97384
BSTAR          = .12011E-3
MEAN_MOTION_DOT = .221E-5
MEAN_MOTION_DDOT = 0

CCSDS_OMM_VERS = 2.0
CREATION_DATE  = 
ORIGINATOR     = 

OBJECT_NAME    = COSMO-SKYMED 1
OBJECT_ID      = 2007-023A
CENTER_NAME    = EARTH
REF_FRAME      = TEME
TIME_SYSTEM    = UTC
MEAN_ELEMENT_THEORY = SGP/SGP4

EPOCH          = 2026-01-27T14:33:10.054368
MEAN_MOTION    = 14.96188926
ECCENTRICITY   = .00015
INCLINATION    = 97.8854
RA_OF_ASC_NODE = 218.3208
ARG_OF_PERICENTER = 87.9249
MEAN_ANOMALY   = 272.2144

EPHEMERIS_TYPE = 0
CLASSIFICATION_TYPE = U
NORAD_CAT_ID   = 31598
ELEMENT_SET_NO = 999
REV_AT_EPOCH   = 876
BSTAR          = .58490638E-3
MEAN_MOTION_DOT = .6536E-4
MEAN_MOTION_DDOT = 0

CCSDS_OMM_VERS = 2.0
CREATION_DATE  = 
ORIGINATOR     = 

OBJECT_NAME    = COSMOS 2428
OBJECT_ID      = 2007-029A
CENTER_NAME    = EARTH
REF_FRAME      = TEME
TIME_SYSTEM    = UTC
MEAN_ELEMENT_THEORY = SGP/SGP4

EPOCH          = 2026-01-27T02:51:52.667712
MEAN_MOTION    = 14.12922041
ECCENTRICITY   = .0006445
INCLINATION    = 70.9402
RA_OF_ASC_NODE = 290.6070
ARG_OF_PERICENTER = 323.9826
MEAN_ANOMALY   = 36.0860

EPHEMERIS_TYPE = 0
CLASSIFICATION_TYPE = U
NORAD_CAT_ID   = 31792
ELEMENT_SET_NO = 999
REV_AT_EPOCH   = 95822
BSTAR          = .25808924E-3
MEAN_MOTION_DOT = .433E-5
MEAN_MOTION_DDOT = 0

CCSDS_OMM_VERS = 2.0
CREATION_DATE  = 
ORIGINATOR     = 

OBJECT_NAME    = SL-16 R/B
OBJECT_ID      = 2007-029B
CENTER_NAME    = EARTH
REF_FRAME      = TEME
TIME_SYSTEM    = UTC
MEAN_ELEMENT_THEORY = SGP/SGP4

EPOCH          = 2026-01-27T14:55:12.292320
MEAN_MOTION    = 14.14822568
ECCENTRICITY   = .00018396
INCLINATION    = 70.9732
RA_OF_ASC_NODE = 258.7128
ARG_OF_PERICENTER = 271.4848
MEAN_ANOMALY   = 117.7574

EPHEMERIS_TYPE = 0
CLASSIFICATION_TYPE = U
NORAD_CAT_ID   = 31793
ELEMENT_SET_NO = 999
REV_AT_EPOCH   = 95956
BSTAR          = .7033689E-4
MEAN_MOTION_DOT = .88E-6
MEAN_MOTION_DDOT = 0

CCSDS_OMM_VERS = 2.0
CREATION_DATE  = 
ORIGINATOR     = 

OBJECT_NAME    = KORONAS-FOTON
OBJECT_ID      = 2009-003A
CENTER_NAME    = EARTH
REF_FRAME      = TEME
TIME_SYSTEM    = UTC
MEAN_ELEMENT_THEORY = SGP/SGP4

EPOCH          = 2026-01-27T18:32:38.593824
MEAN_MOTION    = 15.42263633
ECCENTRICITY   = .0009494
INCLINATION    = 82.4324
RA_OF_ASC_NODE = 318.3747
ARG_OF_PERICENTER = 313.6260
MEAN_ANOMALY   = 46.4198

EPHEMERIS_TYPE = 0
CLASSIFICATION_TYPE = U
NORAD_CAT_ID   = 33504
ELEMENT_SET_NO = 999
REV_AT_EPOCH   = 93943
BSTAR          = .33417E-3
MEAN_MOTION_DOT = .1443E-3
MEAN_MOTION_DDOT = 0

CCSDS_OMM_VERS = 2.0
CREATION_DATE  = 
ORIGINATOR     = 

OBJECT_NAME    = CZ-2C R/B
OBJECT_ID      = 2011-030B
CENTER_NAME    = EARTH
REF_FRAME      = TEME
TIME_SYSTEM    = UTC
MEAN_ELEMENT_THEORY = SGP/SGP4

EPOCH          = 2026-01-27T19:12:54.795744
MEAN_MOTION    = 14.81063541
ECCENTRICITY   = .0053954
INCLINATION    = 97.8473
RA_OF_ASC_NODE = 345.9084
ARG_OF_PERICENTER = 122.5184
MEAN_ANOMALY   = 261.5051

EPHEMERIS_TYPE = 0
CLASSIFICATION_TYPE = U
NORAD_CAT_ID   = 37731
ELEMENT_SET_NO = 999
REV_AT_EPOCH   = 78404
BSTAR          = .28283E-3
MEAN_MOTION_DOT = .2196E-4
MEAN_MOTION_DDOT = 0

CCSDS_OMM_VERS = 2.0
CREATION_DATE  = 
ORIGINATOR     = 

OBJECT_NAME    = H-2A R/B
OBJECT_ID      = 2012-025E
CENTER_NAME    = EARTH
REF_FRAME      = TEME
TIME_SYSTEM    = UTC
MEAN_ELEMENT_THEORY = SGP/SGP4

EPOCH          = 2026-01-27T20:00:42.601824
MEAN_MOTION    = 14.94797912
ECCENTRICITY   = .0046345
INCLINATION    = 98.4652
RA_OF_ASC_NODE = 351.6451
ARG_OF_PERICENTER = 86.5986
MEAN_ANOMALY   = 274.0532

EPHEMERIS_TYPE = 0
CLASSIFICATION_TYPE = U
NORAD_CAT_ID   = 38341
ELEMENT_SET_NO = 999
REV_AT_EPOCH   = 74211
BSTAR          = .51363E-3
MEAN_MOTION_DOT = .5641E-4
MEAN_MOTION_DDOT = 0

CCSDS_OMM_VERS = 2.0
CREATION_DATE  = 
ORIGINATOR     = 

OBJECT_NAME    = SHIJIAN-16 (SJ-16)
OBJECT_ID      = 2013-057A
CENTER_NAME    = EARTH
REF_FRAME      = TEME
TIME_SYSTEM    = UTC
MEAN_ELEMENT_THEORY = SGP/SGP4

EPOCH          = 2026-01-27T20:48:39.935232
MEAN_MOTION    = 14.92206431
ECCENTRICITY   = .001743
INCLINATION    = 74.9716
RA_OF_ASC_NODE = 262.3645
ARG_OF_PERICENTER = 213.0572
MEAN_ANOMALY   = 146.9528

EPHEMERIS_TYPE = 0
CLASSIFICATION_TYPE = U
NORAD_CAT_ID   = 39358
ELEMENT_SET_NO = 999
REV_AT_EPOCH   = 66541
BSTAR          = .15361E-3
MEAN_MOTION_DOT = .154E-4
MEAN_MOTION_DDOT = 0

